0 COSMOS 1833
1 17589U 87027A   13282.19524300 -.00000249  00000-0 -10823-3 0  5512
2 17589 070.9148 135.3715 0001700 161.1350 337.3454 14.12813004370059
0 COSMOS 1833
1 17589U 87027A   13283.80848925 -.00000278  00000-0 -12377-3 0  5522
2 17589 070.9145 131.9815 0001652 156.3165 264.9160 14.12811771370288
0 COSMOS 1833
1 17589U 87027A   13286.16011639 -.00000308  00000-0 -13966-3 0  5549
2 17589 070.9140 127.0397 0001585 149.2372 349.1253 14.12810630370619
0 COSMOS 1833
1 17589U 87027A   13287.77624660 -.00000293  00000-0 -13183-3 0  5556
2 17589 070.9138 123.6433 0001550 144.0120 291.7545 14.12810262370847
0 COSMOS 1833
1 17589U 87027A   13288.84131882 -.00000288  00000-0 -12895-3 0  5568
2 17589 070.9137 121.4049 0001539 140.3873 310.8628 14.12809943370991
0 COSMOS 1833
1 17589U 87027A   13290.12499435 -.00000327  00000-0 -14985-3 0  5570
2 17589 070.9137 118.7072 0001522 135.7606 002.4831 14.12809216371174
0 COSMOS 1833
1 17589U 87027A   13291.52656774 -.00000334  00000-0 -15402-3 0  5580
2 17589 070.9138 115.7616 0001520 130.6783 294.0217 14.12808391371376
0 COSMOS 1833
1 17589U 87027A   13292.80617400 -.00000309  00000-0 -14015-3 0  5597
2 17589 070.9138 113.0724 0001510 125.9575 325.0418 14.12807493371552
0 COSMOS 1833
1 17589U 87027A   13294.08991630 -.00000283  00000-0 -12647-3 0  5601
2 17589 070.9138 110.3744 0001524 121.7504 016.5740 14.12806868371730
0 COSMOS 1833
1 17589U 87027A   13295.48307387 -.00000289  00000-0 -12968-3 0  5619
2 17589 070.9136 107.4466 0001523 118.0202 263.9581 14.12806008371938
